NORAD_CAT_ID,OBJECT_NAME,OBJECT_TYPE,EPOCH,MEAN_MOTION,ECCENTRICITY,INCLINATION,RA_OF_ASC_NODE,ARG_OF_PERICENTER,MEAN_ANOMALY,BSTAR,MEAN_MOTION_DOT,MEAN_MOTION_DDOT,TLE_LINE0,TLE_LINE1,TLE_LINE2,SEMIMAJOR_AXIS,PERIOD,APOGEE,PERIGEE,DECAYED
55393.0,STARLINK-4786,PAYLOAD,2023-12-19 07:36:31,14.98328069,0.0002249,70.0003,310.0686,262.912,97.1784,-5.9725e-05,-8.05e-06,0.0,0 STARLINK-4786,1 55393U 23014C   23353.31703395 -.00000805  00000-0 -59725-4 0  9999,2 55393  70.0003 310.0686 0002249 262.9120  97.1784 14.98328069 50528,6950.199,96.107,573.627,570.501,0.0
55393.0,STARLINK-4786,PAYLOAD,2023-12-20 02:50:08,14.9833087,0.0002735,69.9998,308.0488,261.4894,98.5955,-7.1584e-05,-9.47e-06,0.0,0 STARLINK-4786,1 55393U 23014C   23354.11815128 -.00000947  00000-0 -71584-4 0  9990,2 55393  69.9998 308.0488 0002735 261.4894  98.5955 14.98330870 49703,6950.19,96.107,573.956,570.154,0.0
55393.0,STARLINK-4786,PAYLOAD,2023-12-20 06:02:24,14.98333505,0.0002613,69.9999,307.7117,257.2309,102.8558,-2.9452e-05,-4.44e-06,0.0,0 STARLINK-4786,1 55393U 23014C   23354.25166806 -.00000444  00000-0 -29452-4 0  9996,2 55393  69.9999 307.7117 0002613 257.2309 102.8558 14.98333505 50661,6950.182,96.107,573.863,570.231,0.0
55393.0,STARLINK-4786,PAYLOAD,2023-12-20 22:03:44,14.98328875,0.0002706,70.0002,306.0297,251.2474,108.8392,8.0097e-05,8.63e-06,0.0,0 STARLINK-4786,1 55393U 23014C   23354.91926690  .00000863  00000-0  80097-4 0  9999,2 55393  70.0002 306.0297 0002706 251.2474 108.8392 14.98328875 50767,6950.196,96.107,573.942,570.181,0.0
55393.0,STARLINK-4786,PAYLOAD,2023-12-21 02:52:08,14.98330042,0.0002673,70.0003,305.5248,251.4658,108.621,9.2556e-05,1.012e-05,0.0,0 STARLINK-4786,1 55393U 23014C   23355.11954585  .00001012  00000-0  92556-4 0  9996,2 55393  70.0003 305.5248 0002673 251.4658 108.6210 14.98330042 49851,6950.193,96.107,573.916,570.2,0.0
55393.0,STARLINK-4786,PAYLOAD,2023-12-21 06:04:24,14.98332813,0.0002551,70.0,305.1873,247.4996,112.5893,0.00010438,1.153e-05,0.0,0 STARLINK-4786,1 55393U 23014C   23355.25306366  .00001153  00000-0  10438-3 0  9993,2 55393  70.0000 305.1873 0002551 247.4996 112.5893 14.98332813 50810,6950.184,96.107,573.822,570.276,0.0
55393.0,STARLINK-4786,PAYLOAD,2023-12-21 22:05:45,14.98326411,0.0002534,70.0009,303.506,241.5375,118.5529,-2.4129e-05,-3.81e-06,0.0,0 STARLINK-4786,1 55393U 23014C   23355.92067118 -.00000381  00000-0 -24129-4 0  9993,2 55393  70.0009 303.5060 0002534 241.5375 118.5529 14.98326411 50916,6950.204,96.107,573.83,570.308,0.0
55393.0,STARLINK-4786,PAYLOAD,2023-12-22 02:54:10,14.98325328,0.0002563,70.0009,303.0007,241.2869,118.8032,-3.6484e-05,-5.28e-06,0.0,0 STARLINK-4786,1 55393U 23014C   23356.12095247 -.00000528  00000-0 -36484-4 0  9990,2 55393  70.0009 303.0007 0002563 241.2869 118.8032 14.98325328 50007,6950.207,96.107,573.854,570.291,0.0
55393.0,STARLINK-4786,PAYLOAD,2023-12-22 06:06:26,14.98325616,0.0002554,70.0009,302.6641,242.4277,117.6623,-3.4117e-05,-5e-06,0.0,0 STARLINK-4786,1 55393U 23014C   23356.25447259 -.00000500  00000-0 -34117-4 0  9999,2 55393  70.0009 302.6641 0002554 242.4277 117.6623 14.98325616 50960,6950.206,96.107,573.847,570.296,0.0
55393.0,STARLINK-4786,PAYLOAD,2023-12-22 22:07:46,14.98332145,0.0002603,70.0008,300.9803,239.7983,120.2918,-3.4457e-05,-5.04e-06,0.0,0 STARLINK-4786,1 55393U 23014C   23356.92206843 -.00000504  00000-0 -34457-4 0  9996,2 55393  70.0008 300.9803 0002603 239.7983 120.2918 14.98332145 51062,6950.186,96.107,573.86,570.242,0.0
55393.0,STARLINK-4786,PAYLOAD,2023-12-23 02:56:11,14.98330233,0.0002623,70.0009,300.4753,240.5009,119.5888,-5.4781e-05,-7.46e-06,0.0,0 STARLINK-4786,1 55393U 23014C   23357.12235004 -.00000746  00000-0 -54781-4 0  9990,2 55393  70.0009 300.4753 0002623 240.5009 119.5888 14.98330233 50155,6950.192,96.107,573.88,570.234,0.0
55393.0,STARLINK-4786,PAYLOAD,2023-12-23 06:08:27,14.98332356,0.0002821,69.9997,300.1372,259.3329,100.7512,-4.687e-05,-6.52e-06,0.0,0 STARLINK-4786,1 55393U 23014C   23357.25586895 -.00000652  00000-0 -46870-4 0  9997,2 55393  69.9997 300.1372 0002821 259.3329 100.7512 14.98332356 51116,6950.186,96.107,574.011,570.09,0.0
55393.0,STARLINK-4786,PAYLOAD,2023-12-23 22:09:47,14.9832809,0.0002844,69.9997,298.4537,259.0298,101.0541,1.6627e-05,1.05e-06,0.0,0 STARLINK-4786,1 55393U 23014C   23357.92347027  .00000105  00000-0  16627-4 0  9991,2 55393  69.9997 298.4537 0002844 259.0298 101.0541 14.98328090 51212,6950.199,96.107,574.04,570.087,0.0
55393.0,STARLINK-4786,PAYLOAD,2023-12-24 02:58:11,14.98329058,0.0002739,70.0,297.9487,260.7556,99.3293,3.1077e-05,2.78e-06,0.0,0 STARLINK-4786,1 55393U 23014C   23358.12374974  .00000278  00000-0  31077-4 0  9992,2 55393  70.0000 297.9487 0002739 260.7556  99.3293 14.98329058 50304,6950.196,96.107,573.964,570.157,0.0
55393.0,STARLINK-4786,PAYLOAD,2023-12-24 06:10:28,14.98328879,0.0002446,70.0004,297.6104,263.672,96.4161,7.2464e-05,7.72e-06,0.0,0 STARLINK-4786,1 55393U 23014C   23358.25726945  .00000772  00000-0  72464-4 0  9999,2 55393  70.0004 297.6104 0002446 263.6720  96.4161 14.98328879 51269,6950.196,96.107,573.761,570.361,0.0
55393.0,STARLINK-4786,PAYLOAD,2023-12-24 22:11:48,14.98327123,0.0002456,70.0004,295.9264,263.7537,96.3342,4.1021e-05,3.97e-06,0.0,0 STARLINK-4786,1 55393U 23014C   23358.92487107  .00000397  00000-0  41021-4 0  9995,2 55393  70.0004 295.9264 0002456 263.7537  96.3342 14.98327123 51367,6950.202,96.107,573.774,570.36,0.0
55393.0,STARLINK-4786,PAYLOAD,2023-12-25 03:00:12,14.98333712,0.0002657,70.0001,295.4248,248.0062,112.0815,5.5474e-05,5.69e-06,0.0,0 STARLINK-4786,1 55393U 23014C   23359.12514554  .00000569  00000-0  55474-4 0  9993,2 55393  70.0001 295.4248 0002657 248.0062 112.0815 14.98333712 50454,6950.181,96.107,573.893,570.2,0.0
55393.0,STARLINK-4786,PAYLOAD,2023-12-25 06:12:28,14.98336506,0.0002823,69.9995,295.0881,257.1192,102.9652,8.3168e-05,9e-06,0.0,0 STARLINK-4786,1 55393U 23014C   23359.25866277  .00000900  00000-0  83168-4 0  9999,2 55393  69.9995 295.0881 0002823 257.1192 102.9652 14.98336506 51410,6950.173,96.107,574.0,570.076,0.0
55393.0,STARLINK-4786,PAYLOAD,2023-12-25 19:01:33,14.98330742,0.0002001,70.001,293.7427,264.3488,95.7443,2.3771e-05,1.91e-06,0.0,0 STARLINK-4786,1 55393U 23014C   23359.79275001  .00000191  00000-0  23771-4 0  9993,2 55393  70.0010 293.7427 0002001 264.3488  95.7443 14.98330742 50555,6950.191,96.107,573.446,570.665,0.0
55393.0,STARLINK-4786,PAYLOAD,2023-12-25 22:13:50,14.98321002,0.000266,70.0019,293.4032,258.5358,101.5503,-3.6596e-06,-1.37e-06,0.0,0 STARLINK-4786,1 55393U 23014C   23359.92627497 -.00000137  00000-0 -36596-5 0  9990,2 55393  70.0019 293.4032 0002660 258.5358 101.5503 14.98321002 51514,6950.221,96.108,573.934,570.237,0.0
55393.0,STARLINK-4786,PAYLOAD,2023-12-26 03:02:15,14.98316976,0.0002575,70.0003,292.9,253.6296,106.458,-0.00014364,-1.806e-05,0.0,0 STARLINK-4786,1 55393U 23014C   23360.12656302 -.00001806  00000-0 -14364-3 0  9992,2 55393  70.0003 292.9000 0002575 253.6296 106.4580 14.98316976 50600,6950.233,96.108,573.888,570.308,0.0
55393.0,STARLINK-4786,PAYLOAD,2023-12-26 06:14:31,14.98316435,0.000262,70.0,292.5608,268.3737,91.7122,-0.00014025,-1.765e-05,0.0,0 STARLINK-4786,1 55393U 23014C   23360.26008452 -.00001765  00000-0 -14025-3 0  9992,2 55393  70.0000 292.5608 0002620 268.3737  91.7122 14.98316435 51565,6950.235,96.108,573.921,570.279,0.0
55393.0,STARLINK-4786,PAYLOAD,2023-12-26 22:15:51,14.98326144,0.0002541,70.0009,290.88,263.4991,96.5879,-3.4099e-05,-5e-06,0.0,0 STARLINK-4786,1 55393U 23014C   23360.92767721 -.00000500  00000-0 -34099-4 0  9996,2 55393  70.0009 290.8800 0002541 263.4991  96.5879 14.98326144 51660,6950.205,96.107,573.836,570.304,0.0
55393.0,STARLINK-4786,PAYLOAD,2023-12-27 03:04:15,14.98331,0.0002268,70.0009,290.3747,242.4066,117.6863,3.9545e-05,3.79e-06,0.0,0 STARLINK-4786,1 55393U 23014C   23361.12795141  .00000379  00000-0  39545-4 0  9999,2 55393  70.0009 290.3747 0002268 242.4066 117.6863 14.98331000 50755,6950.19,96.107,573.631,570.478,0.0
55393.0,STARLINK-4786,PAYLOAD,2023-12-27 06:16:31,14.98331588,0.0002287,70.0009,290.0377,247.8015,112.2902,6.2967e-05,6.59e-06,0.0,0 STARLINK-4786,1 55393U 23014C   23361.26147049  .00000659  00000-0  62967-4 0  9997,2 55393  70.0009 290.0377 0002287 247.8015 112.2902 14.98331588 51718,6950.188,96.107,573.642,570.463,0.0
55393.0,STARLINK-4786,PAYLOAD,2023-12-27 22:17:51,14.9832737,0.0002712,70.0006,288.3538,260.8188,99.2664,0.00010131,1.116e-05,0.0,0 STARLINK-4786,1 55393U 23014C   23361.92907033  .00001116  00000-0  10131-3 0  9991,2 55393  70.0006 288.3538 0002712 260.8188  99.2664 14.98327370 51817,6950.201,96.107,573.951,570.181,0.0
55393.0,STARLINK-4786,PAYLOAD,2023-12-28 03:06:16,14.98325946,0.0002536,70.0006,287.8488,259.9364,100.1509,4.9272e-05,4.95e-06,0.0,0 STARLINK-4786,1 55393U 23014C   23362.12935327  .00000495  00000-0  49272-4 0  9999,2 55393  70.0006 287.8488 0002536 259.9364 100.1509 14.98325946 50900,6950.205,96.107,573.833,570.308,0.0
55393.0,STARLINK-4786,PAYLOAD,2023-12-28 04:42:23,14.98330046,0.0002687,69.9993,287.6776,263.4983,96.587,7.6891e-05,8.25e-06,0.0,0 STARLINK-4786,1 55393U 23014C   23362.19611005  .00000825  00000-0  76891-4 0  9994,2 55393  69.9993 287.6776 0002687 263.4983  96.5870 14.98330046 51855,6950.193,96.107,573.925,570.19,0.0
55393.0,STARLINK-4786,PAYLOAD,2023-12-28 22:19:52,14.98333114,0.0002816,69.9991,285.8271,267.4231,92.6605,-2.9705e-05,-4.47e-06,0.0,0 STARLINK-4786,1 55393U 23014C   23362.93047154 -.00000447  00000-0 -29705-4 0  9998,2 55393  69.9991 285.8271 0002816 267.4231  92.6605 14.98333114 51961,6950.183,96.107,574.005,570.091,0.0
55393.0,STARLINK-4786,PAYLOAD,2023-12-29 03:08:16,14.98333497,0.0002814,69.9992,285.3223,267.9158,92.1679,-1.2218e-05,-2.39e-06,0.0,0 STARLINK-4786,1 55393U 23014C   23363.13075033 -.00000239  00000-0 -12218-4 0  9998,2 55393  69.9992 285.3223 0002814 267.9158  92.1679 14.98333497 51055,6950.182,96.107,574.003,570.091,0.0
